start=new Date('2023-04-17T00:00:00.000Z').valueOf();
sats=[{"DECAY_DATE":null,"OBJECT_NAME":"STARLINK-5936","COUNTRY_CODE":"US","MEAN_ELEMENT_THEORY":"SGP4","REV_AT_EPOCH":"357","NORAD_CAT_ID":"56011","REF_FRAME":"TEME","RA_OF_ASC_NODE":"57.6983","CLASSIFICATION_TYPE":"U","LAUNCH_DATE":"2023-03-24","MEAN_MOTION_DOT":"0.00064670","APOAPSIS":"356.211","SITE":"AFETR","MEAN_MOTION":"15.71376417","TLE_LINE2":"2 56011  43.0024  57.6983 0001851 261.3444  98.7214 15.71376417  3573","TLE_LINE1":"1 56011U 23042AB  23106.25958428  .00064670  00000-0  49234-3 0  9997","SEMIMAJOR_AXIS":"6733.099","BSTAR":"0.00049234000000","GP_ID":"230171459","EPHEMERIS_TYPE":"0","TIME_SYSTEM":"UTC","ARG_OF_PERICENTER":"261.3444","OBJECT_ID":"2023-042AB","MEAN_ANOMALY":"98.7214","PERIOD":"91.639","EPOCH":"2023-04-16T06:13:48.081792","ECCENTRICITY":"0.00018510","OBJECT_TYPE":"PAYLOAD","PERIAPSIS":"353.718","FILE":"3888626","CENTER_NAME":"EARTH","RCS_SIZE":"LARGE","ELEMENT_SET_NO":"999","INCLINATION":"43.0024","MEAN_MOTION_DDOT":"0.0000000000000"},{"TLE_LINE1":"1 56012U 23042AC  23106.89541810  .00027464  00000-0  21209-3 0  9993","TLE_LINE2":"2 56012  43.0027  53.8662 0000968 294.4571  65.6196 15.71367141  3672","BSTAR":"0.00021209000000","SEMIMAJOR_AXIS":"6733.126","GP_ID":"230202236","ARG_OF_PERICENTER":"294.4571","TIME_SYSTEM":"UTC","EPHEMERIS_TYPE":"0","PERIOD":"91.640","MEAN_ANOMALY":"65.6196","ECCENTRICITY":"0.00009680","EPOCH":"2023-04-16T21:29:24.123840","OBJECT_ID":"2023-042AC","ELEMENT_SET_NO":"999","RCS_SIZE":"LARGE","CENTER_NAME":"EARTH","FILE":"3888799","PERIAPSIS":"354.339","OBJECT_TYPE":"PAYLOAD","INCLINATION":"43.0027","MEAN_MOTION_DDOT":"0.0000000000000","DECAY_DATE":null,"COUNTRY_CODE":"US","OBJECT_NAME":"STARLINK-5940","REV_AT_EPOCH":"367","NORAD_CAT_ID":"56012","MEAN_ELEMENT_THEORY":"SGP4","RA_OF_ASC_NODE":"53.8662","REF_FRAME":"TEME","LAUNCH_DATE":"2023-03-24","CLASSIFICATION_TYPE":"U","MEAN_MOTION_DOT":"0.00027464","SITE":"AFETR","APOAPSIS":"355.643","MEAN_MOTION":"15.71367141"},{"CLASSIFICATION_TYPE":"U","LAUNCH_DATE":"2023-03-24","MEAN_MOTION_DOT":"-0.00923339","APOAPSIS":"406.128","SITE":"AFETR","MEAN_MOTION":"15.53917547","DECAY_DATE":null,"OBJECT_NAME":"STARLINK-5941","COUNTRY_CODE":"US","MEAN_ELEMENT_THEORY":"SGP4","NORAD_CAT_ID":"56013","REV_AT_EPOCH":"130","REF_FRAME":"TEME","RA_OF_ASC_NODE":"54.4354","EPHEMERIS_TYPE":"0","ARG_OF_PERICENTER":"258.4706","TIME_SYSTEM":"UTC","OBJECT_ID":"2023-042AD","PERIOD":"92.669","MEAN_ANOMALY":"299.3510","ECCENTRICITY":"0.00012160","EPOCH":"2023-04-16T22:00:00.999936","PERIAPSIS":"404.478","OBJECT_TYPE":"PAYLOAD","ELEMENT_SET_NO":"999","RCS_SIZE":"LARGE","CENTER_NAME":"EARTH","FILE":"3888799","INCLINATION":"43.0022","MEAN_MOTION_DDOT":"0.0000000000000","TLE_LINE2":"2 56013  43.0022  54.4354 0001216 258.4706 299.3510 15.53917547  1305","TLE_LINE1":"1 56013U 23042AD  23106.91667824 -.00923339  00000-0 -15396-1 0  9997","SEMIMAJOR_AXIS":"6783.438","BSTAR":"-0.01539600000000","GP_ID":"230202215"},{"TLE_LINE1":"1 56014U 23042AE  23106.89509768  .00043791  00000-0  33522-3 0  9993","TLE_LINE2":"2 56014  43.0026  53.8629 0001183 246.4951 113.5792 15.71384826  3679","BSTAR":"0.00033522000000","SEMIMAJOR_AXIS":"6733.075","GP_ID":"230202067","ARG_OF_PERICENTER":"246.4951","TIME_SYSTEM":"UTC","EPHEMERIS_TYPE":"0","MEAN_ANOMALY":"113.5792","PERIOD":"91.639","ECCENTRICITY":"0.00011830","EPOCH":"2023-04-16T21:28:56.439552","OBJECT_ID":"2023-042AE","RCS_SIZE":"LARGE","ELEMENT_SET_NO":"999","FILE":"3888799","CENTER_NAME":"EARTH","OBJECT_TYPE":"PAYLOAD","PERIAPSIS":"354.144","INCLINATION":"43.0026","MEAN_MOTION_DDOT":"0.0000000000000","DECAY_DATE":null,"OBJECT_NAME":"STARLINK-5942","COUNTRY_CODE":"US","REV_AT_EPOCH":"367","NORAD_CAT_ID":"56014","MEAN_ELEMENT_THEORY":"SGP4","RA_OF_ASC_NODE":"53.8629","REF_FRAME":"TEME","LAUNCH_DATE":"2023-03-24","CLASSIFICATION_TYPE":"U","MEAN_MOTION_DOT":"0.00043791","SITE":"AFETR","APOAPSIS":"355.737","MEAN_MOTION":"15.71384826"},{"DECAY_DATE":null,"COUNTRY_CODE":"US","OBJECT_NAME":"STARLINK-5939","NORAD_CAT_ID":"56015","REV_AT_EPOCH":"357","MEAN_ELEMENT_THEORY":"SGP4","RA_OF_ASC_NODE":"57.6989","REF_FRAME":"TEME","LAUNCH_DATE":"2023-03-24","CLASSIFICATION_TYPE":"U","MEAN_MOTION_DOT":"0.00008254","SITE":"AFETR","APOAPSIS":"355.894","MEAN_MOTION":"15.71359178","TLE_LINE1":"1 56015U 23042AF  23106.25968916  .00008254  00000-0  66317-4 0  9992","TLE_LINE2":"2 56015  43.0022  57.6989 0001307 276.5814  83.4905 15.71359178  3579","BSTAR":"0.00006631700000","SEMIMAJOR_AXIS":"6733.149","GP_ID":"230171361","ARG_OF_PERICENTER":"276.5814","TIME_SYSTEM":"UTC","EPHEMERIS_TYPE":"0","EPOCH":"2023-04-16T06:13:57.143424","PERIOD":"91.640","MEAN_ANOMALY":"83.4905","ECCENTRICITY":"0.00013070","OBJECT_ID":"2023-042AF","CENTER_NAME":"EARTH","FILE":"3888626","RCS_SIZE":"MEDIUM","ELEMENT_SET_NO":"999","OBJECT_TYPE":"PAYLOAD","PERIAPSIS":"354.134","MEAN_MOTION_DDOT":"0.0000000000000","INCLINATION":"43.0022"},{"MEAN_MOTION_DOT":"0.00009558","CLASSIFICATION_TYPE":"U","LAUNCH_DATE":"2023-03-24","MEAN_MOTION":"15.71351918","APOAPSIS":"356.143","SITE":"AFETR","COUNTRY_CODE":"US","OBJECT_NAME":"STARLINK-5943","DECAY_DATE":null,"REF_FRAME":"TEME","RA_OF_ASC_NODE":"57.6924","MEAN_ELEMENT_THEORY":"SGP4","NORAD_CAT_ID":"56016","REV_AT_EPOCH":"357","OBJECT_ID":"2023-042AG","ECCENTRICITY":"0.00016470","PERIOD":"91.641","MEAN_ANOMALY":"60.9356","EPOCH":"2023-04-16T06:12:44.597664","EPHEMERIS_TYPE":"0","ARG_OF_PERICENTER":"299.1346","TIME_SYSTEM":"UTC","MEAN_MOTION_DDOT":"0.0000000000000","INCLINATION":"43.0022","OBJECT_TYPE":"PAYLOAD","PERIAPSIS":"353.925","ELEMENT_SET_NO":"999","RCS_SIZE":"LARGE","FILE":"3888626","CENTER_NAME":"EARTH","TLE_LINE2":"2 56016  43.0022  57.6924 0001647 299.1346  60.9356 15.71351918  3571","TLE_LINE1":"1 56016U 23042AG  23106.25884951  .00009558  00000-0  76260-4 0  9995","GP_ID":"230171484","SEMIMAJOR_AXIS":"6733.169","BSTAR":"0.00007626000000"},{"SITE":"AFETR","APOAPSIS":"356.233","MEAN_MOTION":"15.71375514","LAUNCH_DATE":"2023-03-24","CLASSIFICATION_TYPE":"U","MEAN_MOTION_DOT":"0.00028909","NORAD_CAT_ID":"56017","REV_AT_EPOCH":"357","MEAN_ELEMENT_THEORY":"SGP4","RA_OF_ASC_NODE":"57.6949","REF_FRAME":"TEME","DECAY_DATE":null,"OBJECT_NAME":"STARLINK-5934","COUNTRY_CODE":"US","ELEMENT_SET_NO":"999","RCS_SIZE":"LARGE","FILE":"3888626","CENTER_NAME":"EARTH","PERIAPSIS":"353.701","OBJECT_TYPE":"PAYLOAD","INCLINATION":"43.0019","MEAN_MOTION_DDOT":"0.0000000000000","ARG_OF_PERICENTER":"261.9168","TIME_SYSTEM":"UTC","EPHEMERIS_TYPE":"0","PERIOD":"91.639","MEAN_ANOMALY":"98.1486","ECCENTRICITY":"0.00018800","EPOCH":"2023-04-16T06:13:20.787168","OBJECT_ID":"2023-042AH","BSTAR":"0.00022294000000","SEMIMAJOR_AXIS":"6733.102","GP_ID":"230170602","TLE_LINE1":"1 56017U 23042AH  23106.25926837  .00028909  00000-0  22294-3 0  9994","TLE_LINE2":"2 56017  43.0019  57.6949 0001880 261.9168  98.1486 15.71375514  3578"},{"FILE":"3888799","CENTER_NAME":"EARTH","RCS_SIZE":"LARGE","ELEMENT_SET_NO":"999","OBJECT_TYPE":"PAYLOAD","PERIAPSIS":"354.077","INCLINATION":"43.0025","MEAN_MOTION_DDOT":"0.0000000000000","TIME_SYSTEM":"UTC","ARG_OF_PERICENTER":"268.0109","EPHEMERIS_TYPE":"0","PERIOD":"91.641","MEAN_ANOMALY":"92.0597","EPOCH":"2023-04-16T21:28:11.294688","ECCENTRICITY":"0.00014100","OBJECT_ID":"2023-042AJ","BSTAR":"0.00003560200000","SEMIMAJOR_AXIS":"6733.161","GP_ID":"230202167","TLE_LINE1":"1 56018U 23042AJ  23106.89457517  .00004219  00000-0  35602-4 0  9995","TLE_LINE2":"2 56018  43.0025  53.8589 0001410 268.0109  92.0597 15.71354770  3674","SITE":"AFETR","APOAPSIS":"355.976","MEAN_MOTION":"15.71354770","LAUNCH_DATE":"2023-03-24","CLASSIFICATION_TYPE":"U","MEAN_MOTION_DOT":"0.00004219","NORAD_CAT_ID":"56018","REV_AT_EPOCH":"367","MEAN_ELEMENT_THEORY":"SGP4","RA_OF_ASC_NODE":"53.8589","REF_FRAME":"TEME","DECAY_DATE":null,"OBJECT_NAME":"STARLINK-5945","COUNTRY_CODE":"US"},{"OBJECT_ID":"2023-042AK","MEAN_ANOMALY":"119.8181","PERIOD":"91.641","ECCENTRICITY":"0.00014880","EPOCH":"2023-04-16T21:28:47.549856","EPHEMERIS_TYPE":"0","ARG_OF_PERICENTER":"240.2539","TIME_SYSTEM":"UTC","MEAN_MOTION_DDOT":"0.0000000000000","INCLINATION":"43.0013","PERIAPSIS":"354.017","OBJECT_TYPE":"PAYLOAD","RCS_SIZE":"LARGE","ELEMENT_SET_NO":"999","FILE":"3888799","CENTER_NAME":"EARTH","TLE_LINE2":"2 56019  43.0013  53.8606 0001488 240.2539 119.8181 15.71357461  3673","TLE_LINE1":"1 56019U 23042AK  23106.89499479  .00008343  00000-0  66999-4 0  9994","GP_ID":"230202192","SEMIMAJOR_AXIS":"6733.153","BSTAR":"0.00006699900000","MEAN_MOTION_DOT":"0.00008343","CLASSIFICATION_TYPE":"U","LAUNCH_DATE":"2023-03-24","MEAN_MOTION":"15.71357461","APOAPSIS":"356.020","SITE":"AFETR","COUNTRY_CODE":"US","OBJECT_NAME":"STARLINK-5949","DECAY_DATE":null,"REF_FRAME":"TEME","RA_OF_ASC_NODE":"53.8606","MEAN_ELEMENT_THEORY":"SGP4","REV_AT_EPOCH":"367","NORAD_CAT_ID":"56019"},{"OBJECT_ID":"2023-042AL","MEAN_ANOMALY":"121.6011","PERIOD":"91.640","EPOCH":"2023-04-16T21:28:20.074656","ECCENTRICITY":"0.00018410","EPHEMERIS_TYPE":"0","ARG_OF_PERICENTER":"238.4677","TIME_SYSTEM":"UTC","MEAN_MOTION_DDOT":"0.0000000000000","INCLINATION":"43.0023","PERIAPSIS":"353.772","OBJECT_TYPE":"PAYLOAD","FILE":"3888799","CENTER_NAME":"EARTH","ELEMENT_SET_NO":"999","RCS_SIZE":"LARGE","TLE_LINE2":"2 56020  43.0023  53.8603 0001841 238.4677 121.6011 15.71359922  3675","TLE_LINE1":"1 56020U 23042AL  23106.89467679  .00002445  00000-0  22084-4 0  9997","GP_ID":"230202237","SEMIMAJOR_AXIS":"6733.146","BSTAR":"0.00002208400000","MEAN_MOTION_DOT":"0.00002445","CLASSIFICATION_TYPE":"U","LAUNCH_DATE":"2023-03-24","MEAN_MOTION":"15.71359922","APOAPSIS":"356.251","SITE":"AFETR","OBJECT_NAME":"STARLINK-5912","COUNTRY_CODE":"US","DECAY_DATE":null,"REF_FRAME":"TEME","RA_OF_ASC_NODE":"53.8603","MEAN_ELEMENT_THEORY":"SGP4","NORAD_CAT_ID":"56020","REV_AT_EPOCH":"367"}];
